EYESAT A (AO-27)        
1 22825U 93061C   26162.47588678  .00000067  00000+0  42624-4 0  9992
2 22825  98.6881 229.8913 0009454 114.5060 245.7110 14.30940682706183
ITAMSAT (IO-26)         
1 22826U 93061D   26162.45700271  .00000069  00000+0  42795-4 0  9997
2 22826  98.6828 229.7893 0010069  99.8969 260.3351 14.31367413706498
RADIO ROSTO (RS15)      
1 23439U 94085A   26162.61725759 -.00000047  00000+0 -12786-3 0  9995
2 23439  64.8187 312.2244 0155772   4.9062 355.3347 11.27583612295274
JAS-2 (FO-29)           
1 24278U 96046B   26162.54420304  .00000014  00000+0  46335-4 0  9996
2 24278  98.5245  12.1894 0350826 111.0367 252.8667 13.53273928472402
FORTE                   
1 24920U 97047A   26162.63098211  .00000129  00000+0  75181-4 0  9998
2 24920  69.9541  26.5717 0024564 284.1162  75.7231 14.27942989497893
TECHSAT 1B (GO-32)      
1 25397U 98043D   26162.58543430  .00000048  00000+0  41012-4 0  9992
2 25397  99.0065 155.2028 0000733 176.4907 183.6276 14.24427354450533
ISS (ZARYA)             
1 25544U 98067A   26162.51298015  .00008593  00000+0  16294-3 0  9997
2 25544  51.6332 328.1749 0005119 173.4651 186.6405 15.49175527570872
IMAGE                   
1 26113U 00017A   26162.34581824  .00000011  00000+0  22926-1 0  9996
2 26113  94.2241 315.2958 7436383 288.4674   8.8959  1.68665984161407
CLUSTER II-FM7 (SAMBA)  
1 26410U 00041A   26163.67757317  .00005012  00000+0  00000+0 0  9995
2 26410 149.9129  50.0471 9050232 267.1318 359.9673  0.44876884 20290
CLUSTER II-FM8 (TANGO)  
1 26464U 00045B   26161.68499571  .00004607  00000+0  00000+0 0  9991
2 26464 150.1502  50.7513 9053420 267.6711   3.1468  0.44409835 20283
ODIN                    
1 26702U 01007A   26162.37580449  .00145955  00000+0  10180-2 0  9992
2 26702  97.3848 202.9521 0006706 150.0292 210.1357 15.73864745388487
OMNI-M1                 
1 26857U 01026A   26162.36793160  .00000000  00000+0  00000+0 0  9997
2 26857  44.8323 246.6059 0014278  52.6798 307.5021  3.92401520205343
PCSAT (NO-44)           
1 26931U 01043C   26162.57168052  .00000071  00000+0  57447-4 0  9998
2 26931  67.0509 258.7958 0006101 264.4159  95.6247 14.31954128289643
PROBA-1                 
1 26958U 01049B   26162.62735442  .00002597  00000+0  16987-3 0  9990
2 26958  97.9606 170.9651 0055765 140.5011 220.0301 15.07474718342784
SAUDISAT 1C (SO-50)     
1 27607U 02058C   26162.55839360  .00000916  00000+0  12536-3 0  9998
2 27607  64.5506 146.4007 0075403 263.5157  95.7360 14.83034770263626
CORIOLIS                
1 27640U 03001A   26162.55997411  .00000096  00000+0  65621-4 0  9999
2 27640  98.7126 169.5307 0013098 225.9098 134.1001 14.19943314213422
CUTE-1 (CO-55)          
1 27844U 03031E   26162.55782411  .00000255  00000+0  12921-3 0  9991
2 27844  98.6735 171.1873 0009139 194.6488 165.4428 14.24332340190876
CUBESAT XI-IV (CO-57)   
1 27848U 03031J   26162.54345884  .00000221  00000+0  11637-3 0  9999
2 27848  98.6768 170.8906 0008680 214.5229 145.5387 14.23617902190573
MOZHAETS 4 (RS22)       
1 27939U 03042A   26162.64905005  .00001068  00000+0  17278-3 0  9997
2 27939  98.3474 346.8520 0010038 289.4379 160.3055 14.73458673214734
